{"fetched_at":"2026-07-23T07:05:30.896Z","source":"https://celestrak.org/NORAD/elements/gp.php?NAME=BRO&FORMAT=JSON","constellation":"unseenlabs","records":[{"OBJECT_NAME":"BRO-5","OBJECT_ID":"2022-002CF","EPOCH":"2026-07-22T22:12:59.311008","CLASSIFICATION_TYPE":"U","MEAN_MOTION":15.49108938,"ECCENTRICITY":0.00061936,"INCLINATION":97.2974,"RA_OF_ASC_NODE":277.956,"ARG_OF_PERICENTER":175.2305,"MEAN_ANOMALY":184.9006,"EPHEMERIS_TYPE":0,"NORAD_CAT_ID":51061,"ELEMENT_SET_NO":999,"REV_AT_EPOCH":25178,"BSTAR":0.00028359757,"MEAN_MOTION_DOT":0.0001533,"MEAN_MOTION_DDOT":0},{"OBJECT_NAME":"BRO-6","OBJECT_ID":"2022-047AE","EPOCH":"2026-07-22T22:13:07.633056","CLASSIFICATION_TYPE":"U","MEAN_MOTION":15.53063616,"ECCENTRICITY":0.00031288,"INCLINATION":97.3382,"RA_OF_ASC_NODE":295.7304,"ARG_OF_PERICENTER":267.9808,"MEAN_ANOMALY":92.1087,"EPHEMERIS_TYPE":0,"NORAD_CAT_ID":52422,"ELEMENT_SET_NO":999,"REV_AT_EPOCH":23669,"BSTAR":0.00083843464,"MEAN_MOTION_DOT":0.00052576,"MEAN_MOTION_DDOT":0},{"OBJECT_NAME":"BRO-8","OBJECT_ID":"2023-001C","EPOCH":"2026-07-22T22:32:51.248256","CLASSIFICATION_TYPE":"U","MEAN_MOTION":15.51139941,"ECCENTRICITY":0.00040696,"INCLINATION":97.318,"RA_OF_ASC_NODE":269.6879,"ARG_OF_PERICENTER":9.1477,"MEAN_ANOMALY":350.9849,"EPHEMERIS_TYPE":0,"NORAD_CAT_ID":55011,"ELEMENT_SET_NO":999,"REV_AT_EPOCH":19774,"BSTAR":0.00066515873,"MEAN_MOTION_DOT":0.00038857,"MEAN_MOTION_DDOT":0},{"OBJECT_NAME":"BRO-11","OBJECT_ID":"2023-174J","EPOCH":"2026-07-22T22:46:45.766848","CLASSIFICATION_TYPE":"U","MEAN_MOTION":15.27639437,"ECCENTRICITY":0.00119757,"INCLINATION":97.3891,"RA_OF_ASC_NODE":280.4687,"ARG_OF_PERICENTER":84.1904,"MEAN_ANOMALY":276.0701,"EPHEMERIS_TYPE":0,"NORAD_CAT_ID":58264,"ELEMENT_SET_NO":999,"REV_AT_EPOCH":15021,"BSTAR":0.00016753549,"MEAN_MOTION_DOT":0.0000446,"MEAN_MOTION_DDOT":0},{"OBJECT_NAME":"BRO-13","OBJECT_ID":"2024-043K","EPOCH":"2026-07-22T22:16:47.845056","CLASSIFICATION_TYPE":"U","MEAN_MOTION":14.96670449,"ECCENTRICITY":0.00075415,"INCLINATION":97.8541,"RA_OF_ASC_NODE":335.0696,"ARG_OF_PERICENTER":232.9963,"MEAN_ANOMALY":127.0568,"EPHEMERIS_TYPE":0,"NORAD_CAT_ID":59107,"ELEMENT_SET_NO":999,"REV_AT_EPOCH":12996,"BSTAR":0.00010885033,"MEAN_MOTION_DOT":0.00001183,"MEAN_MOTION_DDOT":0},{"OBJECT_NAME":"BRO-12","OBJECT_ID":"2024-043L","EPOCH":"2026-07-22T22:02:50.482176","CLASSIFICATION_TYPE":"U","MEAN_MOTION":14.96912079,"ECCENTRICITY":0.00070445,"INCLINATION":97.8525,"RA_OF_ASC_NODE":335.2303,"ARG_OF_PERICENTER":224.7191,"MEAN_ANOMALY":135.3463,"EPHEMERIS_TYPE":0,"NORAD_CAT_ID":59108,"ELEMENT_SET_NO":999,"REV_AT_EPOCH":12998,"BSTAR":0.00014989624,"MEAN_MOTION_DOT":0.00001662,"MEAN_MOTION_DDOT":0},{"OBJECT_NAME":"BRO-14","OBJECT_ID":"2024-149CM","EPOCH":"2026-07-22T15:21:37.524960","CLASSIFICATION_TYPE":"U","MEAN_MOTION":14.96251572,"ECCENTRICITY":0.00061522,"INCLINATION":97.6861,"RA_OF_ASC_NODE":278.7801,"ARG_OF_PERICENTER":353.5286,"MEAN_ANOMALY":6.5855,"EPHEMERIS_TYPE":0,"NORAD_CAT_ID":60551,"ELEMENT_SET_NO":999,"REV_AT_EPOCH":10529,"BSTAR":0.000077307088,"MEAN_MOTION_DOT":0.00000816,"MEAN_MOTION_DDOT":0},{"OBJECT_NAME":"BRO-15","OBJECT_ID":"2024-149CP","EPOCH":"2026-07-22T21:22:02.234496","CLASSIFICATION_TYPE":"U","MEAN_MOTION":14.96232928,"ECCENTRICITY":0.0006974,"INCLINATION":97.679,"RA_OF_ASC_NODE":278.5942,"ARG_OF_PERICENTER":339.6089,"MEAN_ANOMALY":20.4853,"EPHEMERIS_TYPE":0,"NORAD_CAT_ID":60553,"ELEMENT_SET_NO":999,"REV_AT_EPOCH":10534,"BSTAR":0.00010693174,"MEAN_MOTION_DOT":0.0000115,"MEAN_MOTION_DDOT":0},{"OBJECT_NAME":"BRO-16","OBJECT_ID":"2025-009AX","EPOCH":"2026-07-22T11:13:19.412256","CLASSIFICATION_TYPE":"U","MEAN_MOTION":15.24162801,"ECCENTRICITY":0.00027097,"INCLINATION":97.4046,"RA_OF_ASC_NODE":283.5204,"ARG_OF_PERICENTER":139.2044,"MEAN_ANOMALY":220.9396,"EPHEMERIS_TYPE":0,"NORAD_CAT_ID":62654,"ELEMENT_SET_NO":999,"REV_AT_EPOCH":8417,"BSTAR":0.00013382827,"MEAN_MOTION_DOT":0.00003186,"MEAN_MOTION_DDOT":0},{"OBJECT_NAME":"BRO-18","OBJECT_ID":"2025-135Y","EPOCH":"2026-07-22T22:45:52.583328","CLASSIFICATION_TYPE":"U","MEAN_MOTION":15.22214277,"ECCENTRICITY":0.00026916,"INCLINATION":97.4652,"RA_OF_ASC_NODE":318.7102,"ARG_OF_PERICENTER":104.8085,"MEAN_ANOMALY":255.3449,"EPHEMERIS_TYPE":0,"NORAD_CAT_ID":64550,"ELEMENT_SET_NO":999,"REV_AT_EPOCH":6031,"BSTAR":0.00017356392,"MEAN_MOTION_DOT":0.00003917,"MEAN_MOTION_DDOT":0},{"OBJECT_NAME":"BRO-17","OBJECT_ID":"2025-276G","EPOCH":"2026-07-22T04:23:02.217120","CLASSIFICATION_TYPE":"U","MEAN_MOTION":15.18186732,"ECCENTRICITY":0.00054762,"INCLINATION":97.4176,"RA_OF_ASC_NODE":275.6144,"ARG_OF_PERICENTER":228.5584,"MEAN_ANOMALY":131.5181,"EPHEMERIS_TYPE":0,"NORAD_CAT_ID":66672,"ELEMENT_SET_NO":999,"REV_AT_EPOCH":3570,"BSTAR":0.00012068715,"MEAN_MOTION_DOT":0.000024,"MEAN_MOTION_DDOT":0},{"OBJECT_NAME":"BRO-20","OBJECT_ID":"2025-276J","EPOCH":"2026-07-22T03:47:23.620992","CLASSIFICATION_TYPE":"U","MEAN_MOTION":15.18353301,"ECCENTRICITY":0.00050429,"INCLINATION":97.4155,"RA_OF_ASC_NODE":275.5781,"ARG_OF_PERICENTER":231.915,"MEAN_ANOMALY":128.163,"EPHEMERIS_TYPE":0,"NORAD_CAT_ID":66674,"ELEMENT_SET_NO":999,"REV_AT_EPOCH":3570,"BSTAR":0.00011255542,"MEAN_MOTION_DOT":0.00002245,"MEAN_MOTION_DDOT":0},{"OBJECT_NAME":"BRO-19","OBJECT_ID":"2026-067G","EPOCH":"2026-07-22T19:42:25.979328","CLASSIFICATION_TYPE":"U","MEAN_MOTION":15.19027563,"ECCENTRICITY":0.00027624,"INCLINATION":97.4492,"RA_OF_ASC_NODE":161.7746,"ARG_OF_PERICENTER":99.2301,"MEAN_ANOMALY":260.9246,"EPHEMERIS_TYPE":0,"NORAD_CAT_ID":68422,"ELEMENT_SET_NO":999,"REV_AT_EPOCH":1735,"BSTAR":0.00017081656,"MEAN_MOTION_DOT":0.00003509,"MEAN_MOTION_DDOT":0},{"OBJECT_NAME":"BRO-21","OBJECT_ID":"2026-100AD","EPOCH":"2026-07-22T12:08:58.317792","CLASSIFICATION_TYPE":"U","MEAN_MOTION":15.21657061,"ECCENTRICITY":0.00063351,"INCLINATION":97.3989,"RA_OF_ASC_NODE":100.8215,"ARG_OF_PERICENTER":296.2391,"MEAN_ANOMALY":63.8193,"EPHEMERIS_TYPE":0,"NORAD_CAT_ID":69007,"ELEMENT_SET_NO":999,"REV_AT_EPOCH":1217,"BSTAR":0.00020785649,"MEAN_MOTION_DOT":0.00004631,"MEAN_MOTION_DDOT":0},{"OBJECT_NAME":"BRO-22","OBJECT_ID":"2026-132C","EPOCH":"2026-07-22T21:55:19.878528","CLASSIFICATION_TYPE":"U","MEAN_MOTION":14.99832407,"ECCENTRICITY":0.00174821,"INCLINATION":97.6823,"RA_OF_ASC_NODE":267.1337,"ARG_OF_PERICENTER":153.2487,"MEAN_ANOMALY":206.9642,"EPHEMERIS_TYPE":0,"NORAD_CAT_ID":69504,"ELEMENT_SET_NO":999,"REV_AT_EPOCH":613,"BSTAR":0.00015560781,"MEAN_MOTION_DOT":0.00001872,"MEAN_MOTION_DDOT":0}]}
