{"epoch":1784799577,"count":18318,"objects":[{"id":"51061","name":"BRO-5","type":"PAYLOAD","l1":"1 51061U 22002CF  26203.92568647  .00015330  00000-0  28360-3 0  9993","l2":"2 51061  97.2974 277.9560 0006194 175.2305 184.9006 15.49108938251781"},{"id":"52422","name":"BRO-6","type":"PAYLOAD","l1":"1 52422U 22047AE  26203.92578279  .00052576  00000-0  83843-3 0  9996","l2":"2 52422  97.3382 295.7304 0003129 267.9808  92.1087 15.53063616236693"},{"id":"55011","name":"BRO-8","type":"PAYLOAD","l1":"1 55011U 23001C   26203.93948204  .00038857  00000-0  66516-3 0  9998","l2":"2 55011  97.3180 269.6879 0004070   9.1477 350.9849 15.51139941197743"},{"id":"58264","name":"BRO-11","type":"PAYLOAD","l1":"1 58264U 23174J   26203.94914082  .00004460  00000-0  16754-3 0  9992","l2":"2 58264  97.3891 280.4687 0011976  84.1904 276.0701 15.27639437150218"},{"id":"59107","name":"BRO-13","type":"PAYLOAD","l1":"1 59107U 24043K   26203.92833154  .00001183  00000-0  10885-3 0  9991","l2":"2 59107  97.8541 335.0696 0007542 232.9963 127.0568 14.96670449129968"},{"id":"59108","name":"BRO-12","type":"PAYLOAD","l1":"1 59108U 24043L   26203.91863984  .00001662  00000-0  14990-3 0  9998","l2":"2 59108  97.8525 335.2303 0007044 224.7191 135.3463 14.96912079129983"},{"id":"60551","name":"BRO-14","type":"PAYLOAD","l1":"1 60551U 24149CM  26203.64001765  .00000816  00000-0  77307-4 0  9992","l2":"2 60551  97.6861 278.7801 0006152 353.5286   6.5855 14.96251572105293"},{"id":"60553","name":"BRO-15","type":"PAYLOAD","l1":"1 60553U 24149CP  26203.89030364  .00001150  00000-0  10693-3 0  9994","l2":"2 60553  97.6790 278.5942 0006974 339.6089  20.4853 14.96232928105341"},{"id":"62654","name":"BRO-16","type":"PAYLOAD","l1":"1 62654U 25009AX  26203.46758579  .00003186  00000-0  13383-3 0  9992","l2":"2 62654  97.4046 283.5204 0002710 139.2044 220.9396 15.24162801 84173"},{"id":"64550","name":"BRO-18","type":"PAYLOAD","l1":"1 64550U 25135Y   26203.94852527  .00003917  00000-0  17356-3 0  9996","l2":"2 64550  97.4652 318.7102 0002692 104.8085 255.3449 15.22214277 60317"},{"id":"66672","name":"BRO-17","type":"PAYLOAD","l1":"1 66672U 25276G   26203.18266455  .00002400  00000-0  12069-3 0  9996","l2":"2 66672  97.4176 275.6144 0005476 228.5584 131.5181 15.18186732 35705"},{"id":"66674","name":"BRO-20","type":"PAYLOAD","l1":"1 66674U 25276J   26203.15791228  .00002245  00000-0  11256-3 0  9990","l2":"2 66674  97.4155 275.5781 0005043 231.9150 128.1630 15.18353301 35706"},{"id":"68422","name":"BRO-19","type":"PAYLOAD","l1":"1 68422U 26067G   26203.82113402  .00003509  00000-0  17082-3 0  9995","l2":"2 68422  97.4492 161.7746 0002762  99.2301 260.9246 15.19027563 17356"},{"id":"69007","name":"BRO-21","type":"PAYLOAD","l1":"1 69007U 26100AD  26203.50623053  .00004631  00000-0  20786-3 0  9998","l2":"2 69007  97.3989 100.8215 0006335 296.2391  63.8193 15.21657061 12170"},{"id":"69504","name":"BRO-22","type":"PAYLOAD","l1":"1 69504U 26132C   26203.91342452  .00001872  00000-0  15561-3 0  9990","l2":"2 69504  97.6823 267.1337 0017482 153.2487 206.9642 14.99832407  6138"}]}